NORAD_CAT_ID,OBJECT_NAME,OBJECT_TYPE,EPOCH,MEAN_MOTION,ECCENTRICITY,INCLINATION,RA_OF_ASC_NODE,ARG_OF_PERICENTER,MEAN_ANOMALY,BSTAR,MEAN_MOTION_DOT,MEAN_MOTION_DDOT,TLE_LINE0,TLE_LINE1,TLE_LINE2,SEMIMAJOR_AXIS,PERIOD,APOGEE,PERIGEE,DECAYED
52579.0,STARLINK-3893,PAYLOAD,2024-01-28 06:58:30,15.08842217,0.0001505,53.2195,357.0607,78.4168,281.6993,0.00010889,1.446e-05,0.0,0 STARLINK-3893,1 52579U 22051AV  24028.29063552  .00001446  00000-0  10889-3 0  9990,2 52579  53.2195 357.0607 0001505  78.4168 281.6993 15.08842217 94928,6917.874,95.437,540.78,538.697,0.0
52579.0,STARLINK-3893,PAYLOAD,2024-01-29 03:38:31,15.08844334,0.0001729,53.2204,353.1949,73.3541,286.7641,2.7523e-05,1.5e-06,0.0,0 STARLINK-3893,1 52579U 22051AV  24029.15175770  .00000150  00000-0  27523-4 0  9997,2 52579  53.2204 353.1949 0001729  73.3541 286.7641 15.08844334 95123,6917.867,95.437,540.928,538.536,0.0
52579.0,STARLINK-3893,PAYLOAD,2024-01-29 21:07:46,15.08840304,0.0002046,53.2194,349.9351,64.6498,295.4706,0.0001001,1.305e-05,0.0,0 STARLINK-3893,1 52579U 22051AV  24029.88039889  .00001305  00000-0  10010-3 0  9992,2 52579  53.2194 349.9351 0002046  64.6498 295.4706 15.08840304 95164,6917.879,95.438,541.16,538.329,0.0
52579.0,STARLINK-3893,PAYLOAD,2024-01-30 06:40:05,15.08844224,0.0001741,53.2196,348.1462,80.1472,279.9716,3.7169e-05,3.04e-06,0.0,0 STARLINK-3893,1 52579U 22051AV  24030.27783708  .00000304  00000-0  37169-4 0  9996,2 52579  53.2196 348.1462 0001741  80.1472 279.9716 15.08844224 95293,6917.867,95.437,540.937,538.528,0.0
52579.0,STARLINK-3893,PAYLOAD,2024-01-31 03:20:05,15.08846408,0.0001745,53.2188,344.2795,76.7591,283.3595,-8.4307e-06,-4.22e-06,0.0,0 STARLINK-3893,1 52579U 22051AV  24031.13895607 -.00000422  00000-0 -84307-5 0  9994,2 52579  53.2188 344.2795 0001745  76.7591 283.3595 15.08846408 95354,6917.861,95.437,540.933,538.519,0.0
52579.0,STARLINK-3893,PAYLOAD,2024-02-01 03:10:53,15.08835124,0.0001678,53.2194,339.8194,95.4382,264.6801,-1.4979e-05,-5.26e-06,0.0,0 STARLINK-3893,1 52579U 22051AV  24032.13256236 -.00000526  00000-0 -14979-4 0  9996,2 52579  53.2194 339.8194 0001678  95.4382 264.6801 15.08835124 95574,6917.895,95.438,540.921,538.599,0.0
52579.0,STARLINK-3893,PAYLOAD,2024-02-02 01:26:16,15.08845973,0.0001393,53.2187,335.6562,108.8982,251.2161,-1.8032e-05,-5.75e-06,0.0,0 STARLINK-3893,1 52579U 22051AV  24033.05991596 -.00000575  00000-0 -18032-4 0  9991,2 52579  53.2187 335.6562 0001393 108.8982 251.2161 15.08845973 95718,6917.862,95.437,540.691,538.763,0.0
52579.0,STARLINK-3893,PAYLOAD,2024-02-02 18:55:31,15.08836974,0.0001305,53.2185,332.3882,99.8573,260.2567,4.3543e-05,4.05e-06,0.0,0 STARLINK-3893,1 52579U 22051AV  24033.78856083  .00000405  00000-0  43543-4 0  9997,2 52579  53.2185 332.3882 0001305  99.8573 260.2567 15.08836974 95826,6917.89,95.438,540.657,538.852,0.0
52579.0,STARLINK-3893,PAYLOAD,2024-02-02 20:30:55,15.08833557,0.0001241,53.2179,332.0857,87.3485,272.7649,1.3193e-05,-7.8e-07,0.0,0 STARLINK-3893,1 52579U 22051AV  24033.85480473 -.00000078  00000-0  13193-4 0  9996,2 52579  53.2179 332.0857 0001241  87.3485 272.7649 15.08833557 95767,6917.9,95.438,540.624,538.907,0.0
52579.0,STARLINK-3893,PAYLOAD,2024-02-03 02:52:27,15.08831321,0.0001245,53.2184,330.8965,93.3911,266.7223,-8.7056e-06,-4.26e-06,0.0,0 STARLINK-3893,1 52579U 22051AV  24034.11976765 -.00000426  00000-0 -87056-5 0  9998,2 52579  53.2184 330.8965 0001245  93.3911 266.7223 15.08831321 95874,6917.907,95.438,540.633,538.911,0.0
52579.0,STARLINK-3893,PAYLOAD,2024-02-04 02:43:15,15.08789938,0.0001569,53.2191,326.437,92.7563,267.3609,0.00070892,0.00010997,0.0,0 STARLINK-3893,1 52579U 22051AV  24035.11337264  .00010997  00000-0  70892-3 0  9994,2 52579  53.2191 326.4370 0001569  92.7563 267.3609 15.08789938 96027,6918.033,95.441,540.984,538.813,0.0
52579.0,STARLINK-3893,PAYLOAD,2024-02-04 05:54:00,15.08843858,0.0001438,53.2189,325.8415,103.6147,256.5005,0.00010147,1.327e-05,0.0,0 STARLINK-3893,1 52579U 22051AV  24035.24584078  .00001327  00000-0  10147-3 0  9999,2 52579  53.2189 325.8415 0001438 103.6147 256.5005 15.08843858 96046,6917.869,95.437,540.728,538.739,0.0
52579.0,STARLINK-3893,PAYLOAD,2024-02-05 12:06:21,15.08828784,0.0001565,53.2197,320.1916,93.5535,266.5636,1.7285e-05,-1.3e-07,0.0,0 STARLINK-3893,1 52579U 22051AV  24036.50441373 -.00000013  00000-0  17285-4 0  9992,2 52579  53.2197 320.1916 0001565  93.5535 266.5636 15.08828784 96231,6917.915,95.438,540.862,538.697,0.0
52579.0,STARLINK-3893,PAYLOAD,2024-02-06 04:00:10,15.08856601,0.0001562,53.2192,317.2184,94.9419,265.1752,0.00010628,1.405e-05,0.0,0 STARLINK-3893,1 52579U 22051AV  24037.16679277  .00001405  00000-0  10628-3 0  9999,2 52579  53.2192 317.2184 0001562  94.9419 265.1752 15.08856601 96337,6917.83,95.437,540.775,538.614,0.0
52579.0,STARLINK-3893,PAYLOAD,2024-02-07 03:50:58,15.08851124,0.0001461,53.2182,312.7531,92.7438,267.3721,4.41e-06,-2.18e-06,0.0,0 STARLINK-3893,1 52579U 22051AV  24038.16039581 -.00000218  00000-0  44100-5 0  9994,2 52579  53.2182 312.7531 0001461  92.7438 267.3721 15.08851124 96488,6917.846,95.437,540.722,538.701,0.0
52579.0,STARLINK-3893,PAYLOAD,2024-02-07 11:47:54,15.08843868,0.0001195,53.2179,311.2737,90.433,269.6799,-0.000104,-1.943e-05,0.0,0 STARLINK-3893,1 52579U 22051AV  24038.49160188 -.00001943  00000-0 -10400-3 0  9999,2 52579  53.2179 311.2737 0001195  90.4330 269.6799 15.08843868 96538,6917.869,95.437,540.56,538.907,0.0
52579.0,STARLINK-3893,PAYLOAD,2024-02-07 21:20:13,15.08837412,0.0001747,53.2176,309.483,117.5566,242.5604,-1.6573e-05,-5.52e-06,0.0,0 STARLINK-3893,1 52579U 22051AV  24038.88904393 -.00000552  00000-0 -16573-4 0  9999,2 52579  53.2176 309.4830 0001747 117.5566 242.5604 15.08837412 96525,6917.888,95.438,540.962,538.545,0.0
52579.0,STARLINK-3893,PAYLOAD,2024-02-08 03:41:45,15.08844361,0.0001659,53.2189,308.2962,95.5262,264.5919,-6.3278e-05,-1.295e-05,0.0,0 STARLINK-3893,1 52579U 22051AV  24039.15400224 -.00001295  00000-0 -63278-4 0  9993,2 52579  53.2189 308.2962 0001659  95.5262 264.5919 15.08844361 96560,6917.867,95.437,540.88,538.584,0.0
52579.0,STARLINK-3893,PAYLOAD,2024-02-08 18:00:14,15.08836644,0.0001493,53.2181,305.6187,104.8169,255.2988,-4.9864e-05,-1.081e-05,0.0,0 STARLINK-3893,1 52579U 22051AV  24039.75016989 -.00001081  00000-0 -49864-4 0  9998,2 52579  53.2181 305.6187 0001493 104.8169 255.2988 15.08836644 96724,6917.891,95.438,540.788,538.723,0.0
52579.0,STARLINK-3893,PAYLOAD,2024-02-08 22:46:23,15.08841492,0.0001447,53.2178,304.7274,104.5953,255.52,-1.4383e-05,-5.17e-06,0.0,0 STARLINK-3893,1 52579U 22051AV  24039.94888584 -.00000517  00000-0 -14383-4 0  9998,2 52579  53.2178 304.7274 0001447 104.5953 255.5200 15.08841492 96686,6917.876,95.437,540.742,538.74,0.0
52579.0,STARLINK-3893,PAYLOAD,2024-02-09 17:51:01,15.08832621,0.0001379,53.2173,301.162,97.6387,262.4762,0.00010671,1.41e-05,0.0,0 STARLINK-3893,1 52579U 22051AV  24040.74377169  .00001410  00000-0  10671-3 0  9996,2 52579  53.2173 301.1620 0001379  97.6387 262.4762 15.08832621 96879,6917.903,95.438,540.722,538.814,0.0
52579.0,STARLINK-3893,PAYLOAD,2024-02-10 00:12:34,15.08838555,0.0001366,53.2171,299.9701,104.9131,255.2012,6.8554e-05,8.03e-06,0.0,0 STARLINK-3893,1 52579U 22051AV  24041.00872994  .00000803  00000-0  68554-4 0  9991,2 52579  53.2171 299.9701 0001366 104.9131 255.2012 15.08838555 96843,6917.885,95.438,540.695,538.805,0.0
52579.0,STARLINK-3893,PAYLOAD,2024-02-10 20:52:35,15.08839651,0.0001518,53.2184,296.11,111.5089,248.6065,0.00010015,1.306e-05,0.0,0 STARLINK-3893,1 52579U 22051AV  24041.86985214  .00001306  00000-0  10015-3 0  9992,2 52579  53.2184 296.1100 0001518 111.5089 248.6065 15.08839651 97049,6917.881,95.438,540.797,538.696,0.0
52579.0,STARLINK-3893,PAYLOAD,2024-02-10 22:27:58,15.08840965,0.0001533,53.2183,295.8127,112.2915,247.8239,0.00010987,1.461e-05,0.0,0 STARLINK-3893,1 52579U 22051AV  24041.93609104  .00001461  00000-0  10987-3 0  9991,2 52579  53.2183 295.8127 0001533 112.2915 247.8239 15.08840965 96982,6917.877,95.437,540.803,538.682,0.0
52579.0,STARLINK-3893,PAYLOAD,2024-02-11 03:14:07,15.08848825,0.0001398,53.2178,294.9163,103.9182,256.1966,0.00015911,2.246e-05,0.0,0 STARLINK-3893,1 52579U 22051AV  24042.13480469  .00002246  00000-0  15911-3 0  9999,2 52579  53.2178 294.9163 0001398 103.9182 256.1966 15.08848825 97083,6917.853,95.437,540.686,538.751,0.0
52579.0,STARLINK-3893,PAYLOAD,2024-02-11 20:43:22,15.08839261,0.0001304,53.2179,291.6433,97.7585,262.3555,5.1415e-05,5.3e-06,0.0,0 STARLINK-3893,1 52579U 22051AV  24042.86345323  .00000530  00000-0  51415-4 0  9992,2 52579  53.2179 291.6433 0001304  97.7585 262.3555 15.08839261 97191,6917.883,95.438,540.65,538.846,0.0
52579.0,STARLINK-3893,PAYLOAD,2024-02-11 22:18:45,15.08840609,0.0001358,53.2178,291.3459,101.7603,258.3541,6.2351e-05,7.05e-06,0.0,0 STARLINK-3893,1 52579U 22051AV  24042.92969178  .00000705  00000-0  62351-4 0  9994,2 52579  53.2178 291.3459 0001358 101.7603 258.3541 15.08840609 97133,6917.879,95.438,540.683,538.804,0.0
52579.0,STARLINK-3893,PAYLOAD,2024-02-11 23:54:08,15.08844329,0.0001401,53.2181,291.0471,79.1268,280.9882,9.3357e-05,1.198e-05,0.0,0 STARLINK-3893,1 52579U 22051AV  24042.99592911  .00001198  00000-0  93357-4 0  9995,2 52579  53.2181 291.0471 0001401  79.1268 280.9882 15.08844329 97145,6917.867,95.437,540.701,538.763,0.0
52579.0,STARLINK-3893,PAYLOAD,2024-02-12 15:48:00,15.08836885,0.0001142,53.2176,288.0766,96.5999,263.5123,-6.0801e-05,-1.255e-05,0.0,0 STARLINK-3893,1 52579U 22051AV  24043.65834026 -.00001255  00000-0 -60801-4 0  9999,2 52579  53.2176 288.0766 0001142  96.5999 263.5123 15.08836885 97310,6917.89,95.438,540.545,538.965,0.0
52579.0,STARLINK-3893,PAYLOAD,2024-02-12 22:09:33,15.08837944,0.0001444,53.2174,286.8901,70.7945,289.3204,-4.6662e-05,-1.03e-05,0.0,0 STARLINK-3893,1 52579U 22051AV  24043.92330086 -.00001030  00000-0 -46662-4 0  9996,2 52579  53.2174 286.8901 0001444  70.7945 289.3204 15.08837944 97284,6917.887,95.438,540.751,538.753,0.0
